{"fetched_at":"2026-03-29T16:36:15Z","count":15609,"tles":[{"name":"ONEWEB-0681","line1":"1 56717U 23068H   26087.83791947  .00000018  00000+0  11467-4 0  9997","line2":"2 56717  87.9172 259.9839 0001616 131.3958 228.7315 13.21827328140472","category":"Other"}]}