{
  "norad_id": 56717,
  "name": "ONEWEB-0681",
  "history": [
    {
      "epoch": "2026-03-28T20:06:36.242208Z",
      "apogee_km": 1178.9699431202953,
      "perigee_km": 1176.5266720472346,
      "latitude_deg": -5.671651918365387e-06,
      "longitude_deg": 132.08026357634014,
      "height_km": 1181.4589754024562,
      "semi_major_axis_km": 7555.885307583765,
      "eccentricity": 0.00016168,
      "inclination_deg": 87.9172,
      "raan_deg": 259.9839,
      "arg_perigee_deg": 131.3958,
      "mean_anomaly_deg": 228.7315,
      "mean_motion_rev_day": 13.21827328
    }
  ]
}